[{"OBJECT_NAME":"ION SCV-004","OBJECT_ID":"2022-002K","EPOCH":"2026-03-09T16:32:03.244416","MEAN_MOTION":15.29369331,"ECCENTRICITY":0.00072157,"INCLINATION":97.2961,"RA_OF_ASC_NODE":128.2294,"ARG_OF_PERICENTER":1.6783,"MEAN_ANOMALY":358.448,"EPHEMERIS_TYPE":0,"CLASSIFICATION_TYPE":"U","NORAD_CAT_ID":50993,"ELEMENT_SET_NO":999,"REV_AT_EPOCH":23008,"BSTAR":0.00023198467,"MEAN_MOTION_DOT":6.538e-5,"MEAN_MOTION_DDOT":0},{"OBJECT_NAME":"STARLINK-31282","OBJECT_ID":"2024-056M","EPOCH":"2026-03-09T12:01:58.762848","MEAN_MOTION":15.27572077,"ECCENTRICITY":0.0001307,"INCLINATION":43.0042,"RA_OF_ASC_NODE":231.9332,"ARG_OF_PERICENTER":267.9054,"MEAN_ANOMALY":92.1648,"EPHEMERIS_TYPE":0,"CLASSIFICATION_TYPE":"U","NORAD_CAT_ID":59307,"ELEMENT_SET_NO":999,"REV_AT_EPOCH":11112,"BSTAR":3.4777849e-5,"MEAN_MOTION_DOT":6.95e-6,"MEAN_MOTION_DDOT":0}]
