ION SCV-004             
1 50993U 22002K   26068.68892644  .00006538  00000+0  23198-3 0  9998
2 50993  97.2961 128.2294 0007216   1.6783 358.4480 15.29369331230088
STARLINK-31282          
1 59307U 24056M   26068.50137457  .00000695  00000+0  34778-4 0  9997
2 59307  43.0042 231.9332 0001307 267.9054  92.1648 15.27572077111125
